{
   "NEO_data": [
      {
         "id": "54017615",
         "name": "(2020 MP2)",
         "velocity": {
            "kilometers_per_second": "9.0964660097",
            "kilometers_per_hour": "32747.2776349845",
            "miles_per_hour": "20347.884817138"
         },
         "miss_distance": {
            "astronomical": "0.0868767442",
            "lunar": "33.7950534938",
            "kilometers": "12996575.884854854",
            "miles": "8075697.7797668252"
         },
         "ODD": "2022-07-23 06:01:21",
         "epoch_osculation": "2460000.5",
         "eccentricity": ".2929872690115544",
         "semi_major_axis": ".9805818260590589",
         "inclination": "13.8469362438921",
         "ascending_node_longitude": "127.8964556408857",
         "perihelion_distance": ".6932838347996521",
         "perihelion_argument": "303.075335600418",
         "aphelion_distance": "1.267879817318466",
         "mean_anomaly": "105.397493803641",
         "mean_motion": "1.015028681315448"
      },
      {
         "id": "54101667",
         "name": "(2020 YA2)",
         "velocity": {
            "kilometers_per_second": "11.4551966387",
            "kilometers_per_hour": "41238.7078993618",
            "miles_per_hour": "25624.129361134"
         },
         "miss_distance": {
            "astronomical": "0.3773436837",
            "lunar": "146.7866929593",
            "kilometers": "56449811.339473719",
            "miles": "35076286.2573425622"
         },
         "ODD": "2022-11-07 05:22:40",
         "epoch_osculation": "2460000.5",
         "eccentricity": ".239722497862246",
         "semi_major_axis": ".808660317551548",
         "inclination": "2.561408125760556",
         "ascending_node_longitude": "263.0680576242745",
         "perihelion_distance": ".6148062463060138",
         "perihelion_argument": "13.46142939969697",
         "aphelion_distance": "1.002514388797082",
         "mean_anomaly": "166.6204876754971",
         "mean_motion": "1.355360660030876"
      },
      {
         "id": "54211504",
         "name": "(2021 UP)",
         "velocity": {
            "kilometers_per_second": "8.144983415",
            "kilometers_per_hour": "29321.9402938222",
            "miles_per_hour": "18219.513400903"
         },
         "miss_distance": {
            "astronomical": "0.1468612694",
            "lunar": "57.1290337966",
            "kilometers": "21970133.087736178",
            "miles": "13651607.6672601364"
         },
         "ODD": "2021-12-25 04:48:55",
         "epoch_osculation": "2460000.5",
         "eccentricity": ".4016774226436031",
         "semi_major_axis": "1.56382566803882",
         "inclination": "8.601552008106106",
         "ascending_node_longitude": "24.36443194733009",
         "perihelion_distance": ".9356722042370758",
         "perihelion_argument": "320.8822618250128",
         "aphelion_distance": "2.191979131840563",
         "mean_anomaly": "265.7280843892793",
         "mean_motion": ".5039895923183212"
      },
      {
         "id": "54347676",
         "name": "(2023 DX2)",
         "velocity": {
            "kilometers_per_second": "3.7309368402",
            "kilometers_per_hour": "13431.3726247184",
            "miles_per_hour": "8345.7326178424"
         },
         "miss_distance": {
            "astronomical": "0.453466717",
            "lunar": "176.398552913",
            "kilometers": "67837654.97909279",
            "miles": "42152364.172908902"
         },
         "ODD": "2023-03-28 06:51:59",
         "epoch_osculation": "2460000.5",
         "eccentricity": ".4017392131792209",
         "semi_major_axis": "1.504369516453645",
         "inclination": "1.916475540960875",
         "ascending_node_longitude": "331.6828229649113",
         "perihelion_distance": ".9000052905827525",
         "perihelion_argument": "261.9223758683773",
         "aphelion_distance": "2.108733742324537",
         "mean_anomaly": "323.6304951471752",
         "mean_motion": ".5341611362214497"
      },
      {
         "id": "54353707",
         "name": "(2023 GF)",
         "velocity": {
            "kilometers_per_second": "7.7300514369",
            "kilometers_per_hour": "27828.1851728207",
            "miles_per_hour": "17291.3520591896"
         },
         "miss_distance": {
            "astronomical": "0.3678424553",
            "lunar": "143.0907151117",
            "kilometers": "55028447.808450211",
            "miles": "34193091.9134304718"
         },
         "ODD": "2023-05-01 05:53:59",
         "epoch_osculation": "2460000.5",
         "eccentricity": ".3859997922934092",
         "semi_major_axis": ".7871660028343758",
         "inclination": "4.287323564123913",
         "ascending_node_longitude": "193.6804749226468",
         "perihelion_distance": ".4833200892398735",
         "perihelion_argument": "206.8842818889704",
         "aphelion_distance": "1.091011916428878",
         "mean_anomaly": "73.36140844595232",
         "mean_motion": "1.411252032730475"
      },
      {
         "id": "2162882",
         "name": "162882 (2001 FD58)",
         "velocity": {
            "kilometers_per_second": "12.7767032097",
            "kilometers_per_hour": "45996.1315547998",
            "miles_per_hour": "28580.2074097032"
         },
         "miss_distance": {
            "astronomical": "0.3920339127",
            "lunar": "152.5011920403",
            "kilometers": "58647438.307685949",
            "miles": "36441828.3343621362"
         },
         "ODD": "2023-05-21 06:51:07",
         "epoch_osculation": "2460000.5",
         "eccentricity": ".5752703194660128",
         "semi_major_axis": "1.092220302659633",
         "inclination": "6.497238611188322",
         "ascending_node_longitude": "341.1680610909604",
         "perihelion_distance": ".4638983802213608",
         "perihelion_argument": "46.00579114944838",
         "aphelion_distance": "1.720542225097906",
         "mean_anomaly": "190.4469569655349",
         "mean_motion": ".8634530068419477"
      },
      {
         "id": "2175706",
         "name": "175706 (1996 FG3)",
         "velocity": {
            "kilometers_per_second": "12.3344394153",
            "kilometers_per_hour": "44403.9818950404",
            "miles_per_hour": "27590.90752806"
         },
         "miss_distance": {
            "astronomical": "0.3257896776",
            "lunar": "126.7321845864",
            "kilometers": "48737441.836946712",
            "miles": "30284042.0677881456"
         },
         "ODD": "2022-09-14 14:49:17",
         "epoch_osculation": "2460000.5",
         "eccentricity": ".3496725761859027",
         "semi_major_axis": "1.054120573029627",
         "inclination": "1.991699758275399",
         "ascending_node_longitude": "299.498127229069",
         "perihelion_distance": ".6855235166477976",
         "perihelion_argument": "24.19709481065532",
         "aphelion_distance": "1.422717629411457",
         "mean_anomaly": "206.6997922456409",
         "mean_motion": ".9106859570732931"
      },
      {
         "id": "3114030",
         "name": "(2002 CB19)",
         "velocity": {
            "kilometers_per_second": "18.0038866681",
            "kilometers_per_hour": "64813.9920052849",
            "miles_per_hour": "40272.8940879505"
         },
         "miss_distance": {
            "astronomical": "0.0904513314",
            "lunar": "35.1855679146",
            "kilometers": "13531326.516104118",
            "miles": "8407976.4140601084"
         },
         "ODD": "2021-04-14 21:18:11",
         "epoch_osculation": "2460000.5",
         "eccentricity": ".4517550168666932",
         "semi_major_axis": "1.283248345058859",
         "inclination": "17.12716784584824",
         "ascending_node_longitude": "318.0405916908804",
         "perihelion_distance": ".7035344672926377",
         "perihelion_argument": "88.71400715357566",
         "aphelion_distance": "1.86296222282508",
         "mean_anomaly": "211.0629008836826",
         "mean_motion": ".6780129744914857"
      },
      {
         "id": "3182823",
         "name": "(2004 KG1)",
         "velocity": {
            "kilometers_per_second": "9.1850289761",
            "kilometers_per_hour": "33066.104313828",
            "miles_per_hour": "20545.9913165561"
         },
         "miss_distance": {
            "astronomical": "0.0478744389",
            "lunar": "18.6231567321",
            "kilometers": "7161914.086885143",
            "miles": "4450207.0547472534"
         },
         "ODD": "2021-04-14 22:14:32",
         "epoch_osculation": "2460000.5",
         "eccentricity": ".4074132324427447",
         "semi_major_axis": ".8299455967466807",
         "inclination": "1.914225426599399",
         "ascending_node_longitude": "242.92196039025",
         "perihelion_distance": ".4918147784244928",
         "perihelion_argument": "213.797745110073",
         "aphelion_distance": "1.168076415068869",
         "mean_anomaly": "38.74864425570644",
         "mean_motion": "1.30355582965442"
      }
   ]
}